{
  "norad_id": 42810,
  "name": "IRIDIUM 124",
  "history": [
    {
      "epoch": "2026-03-28T21:44:55.156416Z",
      "apogee_km": 749.1622348247065,
      "perigee_km": 746.144605097662,
      "latitude_deg": -2.9110691910793194e-05,
      "longitude_deg": 171.3982583703238,
      "height_km": 750.6554551547878,
      "semi_major_axis_km": 7125.790419961184,
      "eccentricity": 0.00021174,
      "inclination_deg": 86.4502,
      "raan_deg": 323.948,
      "arg_perigee_deg": 87.7592,
      "mean_anomaly_deg": 272.3851,
      "mean_motion_rev_day": 14.43288644
    },
    {
      "epoch": "2026-03-29T04:24:15.735744Z",
      "apogee_km": 749.1587402868954,
      "perigee_km": 746.1445316938716,
      "latitude_deg": -1.147150175149704e-06,
      "longitude_deg": 71.17317238936118,
      "height_km": 750.6531420801939,
      "semi_major_axis_km": 7125.788635990383,
      "eccentricity": 0.0002115,
      "inclination_deg": 86.4502,
      "raan_deg": 323.832,
      "arg_perigee_deg": 87.7365,
      "mean_anomaly_deg": 272.4078,
      "mean_motion_rev_day": 14.43289186
    },
    {
      "epoch": "2026-03-30T03:41:57.773760Z",
      "apogee_km": 749.1562975095567,
      "perigee_km": 746.1420899496079,
      "latitude_deg": -4.374700748335134e-06,
      "longitude_deg": 80.38562229408073,
      "height_km": 750.6557197675448,
      "semi_major_axis_km": 7125.786193729582,
      "eccentricity": 0.0002115,
      "inclination_deg": 86.45,
      "raan_deg": 323.4263,
      "arg_perigee_deg": 87.9275,
      "mean_anomaly_deg": 272.2168,
      "mean_motion_rev_day": 14.43289928
    },
    {
      "epoch": "2026-03-30T15:20:48.774624Z",
      "apogee_km": 749.1578453013581,
      "perigee_km": 746.1380801498535,
      "latitude_deg": -5.0650468322973945e-05,
      "longitude_deg": -95.00812943824721,
      "height_km": 750.6567476662165,
      "semi_major_axis_km": 7125.7849627256055,
      "eccentricity": 0.00021189,
      "inclination_deg": 86.4499,
      "raan_deg": 323.2234,
      "arg_perigee_deg": 88.0171,
      "mean_anomaly_deg": 272.1272,
      "mean_motion_rev_day": 14.43290302
    },
    {
      "epoch": "2026-03-30T22:00:09.343584Z",
      "apogee_km": 749.1580814711215,
      "perigee_km": 746.1366063936075,
      "latitude_deg": -6.477197363836448e-05,
      "longitude_deg": 164.76692556601176,
      "height_km": 750.6566293399254,
      "semi_major_axis_km": 7125.784343932364,
      "eccentricity": 0.00021201,
      "inclination_deg": 86.4499,
      "raan_deg": 323.1075,
      "arg_perigee_deg": 88.0372,
      "mean_anomaly_deg": 272.1071,
      "mean_motion_rev_day": 14.4329049
    },
    {
      "epoch": "2026-03-31T21:17:51.302112Z",
      "apogee_km": 749.1581675478183,
      "perigee_km": 746.1311355022517,
      "latitude_deg": -1.1536706325538103e-05,
      "longitude_deg": 173.97961181072702,
      "height_km": 750.6579758008032,
      "semi_major_axis_km": 7125.781651525035,
      "eccentricity": 0.0002124,
      "inclination_deg": 86.4497,
      "raan_deg": 322.7017,
      "arg_perigee_deg": 88.1944,
      "mean_anomaly_deg": 271.95,
      "mean_motion_rev_day": 14.43291308
    },
    {
      "epoch": "2026-04-01T15:36:02.812320Z",
      "apogee_km": 749.161786060341,
      "perigee_km": 746.1247785040323,
      "latitude_deg": 6.931237304405205e-06,
      "longitude_deg": -101.63883089227804,
      "height_km": 750.6592084246332,
      "semi_major_axis_km": 7125.780282282186,
      "eccentricity": 0.0002131,
      "inclination_deg": 86.4495,
      "raan_deg": 322.3829,
      "arg_perigee_deg": 88.2992,
      "mean_anomaly_deg": 271.8453,
      "mean_motion_rev_day": 14.43291724
    },
    {
      "epoch": "2026-04-02T21:33:05.154912Z",
      "apogee_km": 749.1587006302152,
      "perigee_km": 746.1159949837011,
      "latitude_deg": -4.074753544034941e-05,
      "longitude_deg": 167.34967690559068,
      "height_km": 750.6564612465658,
      "semi_major_axis_km": 7125.774347806958,
      "eccentricity": 0.0002135,
      "inclination_deg": 86.4492,
      "raan_deg": 321.8612,
      "arg_perigee_deg": 88.4225,
      "mean_anomaly_deg": 271.722,
      "mean_motion_rev_day": 14.43293527
    },
    {
      "epoch": "2026-04-02T21:33:05.155776Z",
      "apogee_km": 749.1584155992414,
      "perigee_km": 746.1162800146749,
      "latitude_deg": -3.61460476167776e-05,
      "longitude_deg": 167.34967357974125,
      "height_km": 750.6564690939534,
      "semi_major_axis_km": 7125.774347806958,
      "eccentricity": 0.00021346,
      "inclination_deg": 86.4492,
      "raan_deg": 321.8612,
      "arg_perigee_deg": 88.4225,
      "mean_anomaly_deg": 271.722,
      "mean_motion_rev_day": 14.43293527
    },
    {
      "epoch": "2026-04-03T15:51:16.551936Z",
      "apogee_km": 749.158790305597,
      "perigee_km": 746.1089603709524,
      "latitude_deg": 1.359870788371584e-06,
      "longitude_deg": -108.26839238500465,
      "height_km": 750.6545050887097,
      "semi_major_axis_km": 7125.770875338275,
      "eccentricity": 0.000214,
      "inclination_deg": 86.449,
      "raan_deg": 321.5423,
      "arg_perigee_deg": 88.4838,
      "mean_anomaly_deg": 271.6608,
      "mean_motion_rev_day": 14.43294582
    },
    {
      "epoch": "2026-04-04T03:30:07.395552Z",
      "apogee_km": 749.1577262958444,
      "perigee_km": 746.1066144524739,
      "latitude_deg": -9.901250930453935e-06,
      "longitude_deg": 76.33851431198984,
      "height_km": 750.6548218766011,
      "semi_major_axis_km": 7125.769170374158,
      "eccentricity": 0.00021409,
      "inclination_deg": 86.4489,
      "raan_deg": 321.3394,
      "arg_perigee_deg": 88.5604,
      "mean_anomaly_deg": 271.5842,
      "mean_motion_rev_day": 14.432951
    },
    {
      "epoch": "2026-04-05T14:26:39.914304Z",
      "apogee_km": 749.1616660091004,
      "perigee_km": 746.0955915743443,
      "latitude_deg": 6.787050292264652e-05,
      "longitude_deg": -89.84070956994084,
      "height_km": 750.6566796733998,
      "semi_major_axis_km": 7125.7656287917225,
      "eccentricity": 0.00021514,
      "inclination_deg": 86.4486,
      "raan_deg": 320.7307,
      "arg_perigee_deg": 88.7705,
      "mean_anomaly_deg": 271.3743,
      "mean_motion_rev_day": 14.43296176
    },
    {
      "epoch": "2026-04-05T21:06:00.383040Z",
      "apogee_km": 749.1626217717621,
      "perigee_km": 746.0942671713728,
      "latitude_deg": 4.933956552237527e-05,
      "longitude_deg": 169.9346630879368,
      "height_km": 750.6567896031902,
      "semi_major_axis_km": 7125.765444471567,
      "eccentricity": 0.0002153,
      "inclination_deg": 86.4486,
      "raan_deg": 320.6147,
      "arg_perigee_deg": 88.7824,
      "mean_anomaly_deg": 271.3624,
      "mean_motion_rev_day": 14.43296232
    },
    {
      "epoch": "2026-04-06T03:45:20.838816Z",
      "apogee_km": 749.1601454731026,
      "perigee_km": 746.0949266002808,
      "latitude_deg": -2.6656828414241353e-05,
      "longitude_deg": 69.71008623816846,
      "height_km": 750.6583661176389,
      "semi_major_axis_km": 7125.764536036691,
      "eccentricity": 0.00021508,
      "inclination_deg": 86.4485,
      "raan_deg": 320.4987,
      "arg_perigee_deg": 88.8735,
      "mean_anomaly_deg": 271.2712,
      "mean_motion_rev_day": 14.43296508
    },
    {
      "epoch": "2026-04-07T16:21:43.324416Z",
      "apogee_km": 749.1617995253482,
      "perigee_km": 746.0863210517273,
      "latitude_deg": -9.87750474940046e-06,
      "longitude_deg": -121.52477192147883,
      "height_km": 750.6570956039478,
      "semi_major_axis_km": 7125.761060288537,
      "eccentricity": 0.0002158,
      "inclination_deg": 86.4482,
      "raan_deg": 319.8609,
      "arg_perigee_deg": 88.9601,
      "mean_anomaly_deg": 271.1847,
      "mean_motion_rev_day": 14.43297564
    },
    {
      "epoch": "2026-04-08T13:59:34.744128Z",
      "apogee_km": 749.1584333989313,
      "perigee_km": 746.0863760043767,
      "latitude_deg": 1.6592696058456058e-05,
      "longitude_deg": -87.2543733677837,
      "height_km": 750.6592024989047,
      "semi_major_axis_km": 7125.759404701654,
      "eccentricity": 0.00021556,
      "inclination_deg": 86.4481,
      "raan_deg": 319.4839,
      "arg_perigee_deg": 89.0993,
      "mean_anomaly_deg": 271.0455,
      "mean_motion_rev_day": 14.43298067
    }
  ]
}